{"type":"FeatureCollection", "features": [
{"type":"Feature","geometry":{"type":"Polygon","coordinates":[[[23.6911742,50.3534129],[23.6863263,50.3316353],[23.6388487,50.3205064],[23.6310441,50.3048038],[23.6115663,50.2992543],[23.5810135,50.265997],[23.5063175,50.23032],[23.4701277,50.2178762],[23.4294452,50.1842048],[23.3803162,50.1593643],[23.3139516,50.1119628],[23.2791803,50.0998143],[23.2793285,50.0862897],[23.2646055,50.0788649],[23.2393204,50.054451],[23.2159873,50.0474664],[23.2130058,50.0311008],[23.1426354,49.9712214],[23.1149238,49.9565395],[23.107489,49.9419599],[23.0332796,49.8813506],[22.9954723,49.8421548],[22.9706985,49.8386462],[22.954414,49.8033079],[22.932817,49.7932905],[22.8979443,49.76446],[22.8967765,49.7517557],[22.8734299,49.7406314],[22.8477875,49.7100826],[22.821923,49.6945322],[22.8055619,49.693402],[22.787224,49.6764621],[22.7833142,49.6572404],[22.7494427,49.6312574],[22.6847285,49.5717122],[22.6746896,49.549156],[22.6408214,49.5299899],[22.6512224,49.5083818],[22.6704141,49.497519],[22.6966855,49.495128],[22.7128559,49.4375513],[22.7324626,49.3985972],[22.7468489,49.3598976],[22.7431727,49.3358525],[22.750946,49.3165998],[22.7441042,49.298829],[22.7396304,49.2473455],[22.7213127,49.2413378],[22.7148875,49.2264901],[22.7474176,49.2166794],[22.7293136,49.2038681],[22.7072649,49.1749798],[22.7198836,49.1652252],[22.7330664,49.1823842],[22.749653,49.18419],[22.7391328,49.1579778],[22.7602609,49.152527],[22.7889726,49.1578061],[22.7937229,49.1376197],[22.813092,49.1305095],[22.8419388,49.1101786],[22.8758591,49.0965706],[22.8838627,49.0815481],[22.8645343,49.0666874],[22.8747668,49.0499791],[22.8668419,49.0397408],[22.8912598,49.0074521],[22.9140114,48.9892925],[22.9190777,48.970365],[22.9022203,48.9694415],[22.8731532,48.9566746],[22.8731228,48.941116],[22.8988159,48.9042337],[22.9392127,48.8844565],[22.9706841,48.8738119],[22.974838,48.8446284],[23.0003524,48.8307438],[23.0209955,48.8478247],[23.0580648,48.8470289],[23.0699407,48.8548226],[23.100236,48.8621972],[23.136286,48.8457458],[23.133557,48.8340725],[23.153257,48.8306206],[23.1776786,48.8059798],[23.1789164,48.7927062],[23.2017233,48.7603487],[23.22475,48.763466],[23.2401518,48.7586492],[23.2677976,48.7616465],[23.2902331,48.7737657],[23.3173124,48.7534616],[23.34023,48.7566788],[23.3607757,48.7706201],[23.3742644,48.7590641],[23.3777134,48.7440807],[23.3968405,48.7328638],[23.4097694,48.7356986],[23.4350581,48.7256717],[23.4897746,48.7223792],[23.5116075,48.7347016],[23.5482261,48.7257096],[23.5563533,48.7553002],[23.5789694,48.7850143],[23.5697072,48.803424],[23.5521167,48.8220676],[23.5651205,48.8284463],[23.5747531,48.8455031],[23.5677177,48.853548],[23.5824451,48.8719352],[23.5818028,48.8849981],[23.5614709,48.910745],[23.5858992,48.9557375],[23.5658197,48.9745763],[23.5951672,48.9970341],[23.62361,49.0133845],[23.6360633,49.0315832],[23.659755,49.0255545],[23.6778244,49.0430613],[23.6860079,49.0696851],[23.6772811,49.0754021],[23.6907354,49.096291],[23.7180089,49.0934861],[23.7642945,49.1221374],[23.7829324,49.119658],[23.801617,49.1064103],[23.829326,49.1135468],[23.8711084,49.1099258],[23.9044927,49.0982005],[23.9324281,49.1216783],[23.9695063,49.137934],[24.0042312,49.1297216],[24.0235666,49.1181944],[24.0584572,49.1470785],[24.0850005,49.148761],[24.1074413,49.1408198],[24.1353142,49.1427559],[24.1493547,49.1303122],[24.1718168,49.144128],[24.1979369,49.1388471],[24.2113402,49.1483871],[24.2345285,49.1445661],[24.2818333,49.1683911],[24.3089035,49.1712008],[24.3566622,49.1858145],[24.3841408,49.1883633],[24.4164067,49.16814],[24.4349728,49.17381],[24.4379747,49.1972083],[24.4272758,49.2319327],[24.3883263,49.2275757],[24.3590756,49.2329882],[24.3457947,49.2405461],[24.3503902,49.2599753],[24.3639601,49.2779225],[24.3389757,49.2919665],[24.3048509,49.2775344],[24.2987871,49.2958336],[24.3025678,49.3158611],[24.3414682,49.3103827],[24.3586958,49.3223664],[24.3809649,49.3106038],[24.3935068,49.3329453],[24.4004994,49.3619071],[24.4300812,49.3770181],[24.40602,49.393311],[24.3870089,49.395005],[24.3897592,49.4090804],[24.3758476,49.4133982],[24.3734926,49.4299124],[24.3838372,49.442458],[24.410474,49.4448809],[24.4180938,49.473818],[24.4013917,49.4950409],[24.4126149,49.5044933],[24.4398154,49.5116119],[24.4342847,49.5361756],[24.4794254,49.5440861],[24.505327,49.5128466],[24.5358271,49.5187935],[24.5695913,49.5341219],[24.5896416,49.5190301],[24.6314449,49.5007469],[24.6544515,49.5042511],[24.6778413,49.4962503],[24.7208316,49.4967507],[24.7195933,49.5272984],[24.7292802,49.5470938],[24.721255,49.5698165],[24.7915633,49.5728367],[24.8344691,49.5997928],[24.8858927,49.60195],[24.9093697,49.6148495],[24.9297108,49.6094827],[24.9500142,49.6144596],[24.9629883,49.6299246],[24.9826384,49.6365698],[24.9942445,49.6685866],[24.9971985,49.6965663],[25.022051,49.7351751],[25.0715011,49.7163341],[25.114973,49.7456373],[25.1037831,49.7567172],[25.0723704,49.7702238],[25.0866862,49.7781209],[25.0838073,49.8284641],[25.0969596,49.8221063],[25.1373142,49.8147375],[25.1446037,49.8281405],[25.1829332,49.8371002],[25.211649,49.8266412],[25.2443492,49.8252909],[25.2459249,49.8350813],[25.2875415,49.8282399],[25.291315,49.8408003],[25.3167383,49.8555824],[25.375037,49.8679764],[25.3728653,49.875906],[25.3891244,49.8972107],[25.3763232,49.9132831],[25.4004765,49.9374319],[25.4121797,49.9696438],[25.4025176,49.9857123],[25.361115,49.9960105],[25.3194937,50.0156797],[25.2837886,50.0503413],[25.2108215,50.1154226],[25.1972475,50.1310292],[25.2150723,50.1795829],[25.1699111,50.2023431],[25.1694618,50.2230066],[25.1901276,50.2488166],[25.2034751,50.2535474],[25.2049392,50.2793035],[25.1748193,50.2892586],[25.1280094,50.2821062],[25.0714385,50.2945616],[25.0542227,50.3009788],[25.0587799,50.3423377],[25.0332834,50.3458237],[25.0168725,50.3416365],[24.9494318,50.3856308],[24.9293611,50.378121],[24.9397722,50.363838],[24.9368321,50.3457144],[24.8889603,50.3459216],[24.887188,50.3588069],[24.8668826,50.3610932],[24.8560515,50.3513376],[24.7893127,50.3459118],[24.7673403,50.3384681],[24.7141198,50.3434663],[24.7219634,50.3732731],[24.6543127,50.4101312],[24.6262718,50.4084067],[24.5967046,50.4138503],[24.5974305,50.4784911],[24.5835497,50.4915179],[24.5545922,50.4940955],[24.5580032,50.5088441],[24.5473513,50.5342627],[24.5306178,50.5515668],[24.5162291,50.5556635],[24.4880119,50.5512469],[24.4669319,50.5408604],[24.4493251,50.5405028],[24.4064438,50.5602388],[24.4014567,50.590119],[24.3807168,50.6091548],[24.3627125,50.5971275],[24.3234189,50.5998563],[24.3182286,50.5738842],[24.293198,50.5740566],[24.2450666,50.5812576],[24.2179623,50.5919726],[24.1999523,50.607696],[24.1702418,50.6232087],[24.1709347,50.6348509],[24.1257224,50.648883],[24.0920425,50.6233686],[24.0986497,50.5995336],[24.0903441,50.5779311],[24.0913158,50.5620201],[24.0701051,50.5033883],[24.0380071,50.4551186],[24.0345288,50.444832],[24.0058266,50.4353798],[23.997543,50.4121407],[23.9407699,50.4139098],[23.8839921,50.4082683],[23.8033635,50.4047644],[23.7270286,50.3880008],[23.7031117,50.3752858],[23.6911742,50.3534129]]]},"properties":{"type":"relation","id":72380,"tags":{"ISO3166-2":"UA-46","admin_level":"4","boundary":"administrative","katotth":"UA46000000000026241","koatuu":"4600000000","name":"Львівська область","name:ar":"لفيف أوبلاست","name:az":"Lvov vilayəti","name:be":"Львоўская вобласць","name:be-tarask":"Львоўская вобласьць","name:bg":"Лвовска област","name:ca":"Província de Lviv","name:crh":"İlbav vilâyeti","name:cs":"Lvovská oblast","name:cv":"Львов облаçĕ","name:de":"Oblast Lemberg","name:en":"Lviv Oblast","name:eo":"Lviva provinco","name:es":"Óblast de Leópolis","name:et":"Lvivi oblast","name:eu":"Lviveko oblasta","name:fa":"استان لووف","name:fi":"Lvivin alue","name:fr":"Oblast de Lviv","name:he":"מחוז לבוב","name:hr":"Ljvivska oblast","name:hu":"Lvivi terület","name:hy":"Լվովի մարզ","name:id":"Oblast Lviv","name:it":"Oblast' di Leopoli","name:ja":"リヴィウ州","name:ka":"ლვოვის ოლქი","name:ko":"리비우 주","name:lt":"Lvovo sritis","name:lv":"Ļvovas apgabals","name:mk":"Лавовска област","name:mr":"लिव्हिव ओब्लास्त","name:ms":"Oblast Lviv","name:nan":"Lviv séng","name:nl":"Oblast Lviv","name:nn":"Lviv oblast","name:no":"Lviv oblast","name:os":"Львовы облæст","name:pl":"Obwód lwowski","name:pnb":"لویو اوبلاست","name:pt":"Oblast de Lviv","name:ro":"Regiunea Liov","name:ru":"Львовская область","name:rue":"Львівска область","name:sco":"Lviv Oblast","name:sh":"Lavovska oblast","name:sk":"Ľvovská oblasť","name:sr":"Лавовска област","name:sv":"Lviv oblast","name:szl":"Lwowski uobwůd","name:tr":"Lviv Oblastı","name:uk":"Львівська область","name:vi":"Lviv (tỉnh)","name:war":"Lviv Oblast","name:zh":"利沃夫州","name:zh-Hans":"利沃夫州","name:zh-Hant":"利維夫州","place":"state","ref":"ЛЬВ","ref:en":"LVI","timezone":"Europe/Kyiv","type":"boundary","wikidata":"Q164193","wikipedia":"uk:Львівська область"},"relations":[],"meta":{},"name":"Львівська область (Lviv Oblast)"},"id":"relation/72380"}
]}